#dP2024  8  2  0  0  0.00000000      97 __u+U IGS20 FIT  IAC
## 2325 432000.00000000   900.00000000 60524 0.0000000000000
+  118   C06C07C08C10C11C12C13C14C16C19C20C21C22C23C24C25C26
+        C27C28C29C30C32C33C34C35C36C37C38C39C40C41C42C43C44
+        C45E02E03E04E05E06E07E08E09E10E11E12E13E14E15E18E19
+        E21E24E25E26E27E29E30E31E33E34E36G02G03G04G05G06G07
+        G08G09G10G11G12G13G14G15G16G17G18G19G20G21G22G23G24
+        G25G26G27G28G29G30G31G32J02J03J04R01R02R03R04R05R07
+        R08R09R11R12R14R15R16R17R18R19R20R21R22R24R25R26  0
++         7  7  7  7  7  7  7  7  7  5  5  6  6  5  6  6  6
++         6  5  5  6  6  5  6  5  5  5  6  6  6  6  6  6  6
++         6  4  4  4  4  4  4  4  4  4  4  4  4  4  4  4  4
++         4  4  4  4  4  4  5  4  4  4  4  3  3  3  4  3  3
++         3  3  3  3  3  4  3  4  3  3  3  3  3  3  3  4  4
++         3  3  3  3  3  3  3  3 11 11 11  8  6  7  6  6  7
++         7  6  7  7  6  6  6  6  6  8  8  6  6  7  7  8  0
%c M  cc GPS ccc cccc cccc cccc cccc ccccc ccccc ccccc ccccc
%c cc cc ccc ccc cccc cccc cccc cccc ccccc ccccc ccccc ccccc
%f  1.2500000  1.025000000  0.00000000000  0.000000000000000
%f  0.0000000  0.000000000  0.00000000000  0.000000000000000
%i    0    0    0    0      0      0      0      0         0
%i    0    0    0    0      0      0      0      0         0
/* INFORMATION & ANALYSIS CENTER (IAC)            FINAL DATA
/* S/V CLOCKS ARE ALIGNED TO GNSS TIME                      
/* G:C1WC2W R:C1PC2P E:C1XC5X C:C2IC6I J:C1CC2S             
/* PCV:IGS20_2317 OL/AL:FES2004  NONE     YN ORB:CoN CLK:CoN
*  2024 08 02  0 45  0.00000000
PC06  -5463.785233  24479.872659 -33774.399967    644.558601
PC07 -16971.236426  34773.429686  16558.644148   -497.682332
PC08  -3074.956602  40167.394662  12806.534351   -378.893177
PC10  -9956.149988  34659.063395  21736.818978   -105.641898
PC11  17639.853425 -10799.343558 -18676.399473    691.886517
PC12  27774.654231    519.203755  -2690.635349   -265.476248
PC13    921.631414  41669.866050   7463.276034    438.331676
PC14  17031.827609 -21914.055481  -3214.939545    915.481086
PC16  -6642.946700  23283.925854 -34161.395779   -699.181570
PC19 -11468.592716  24694.161499  -6031.537982   -922.371216
PC20 -19599.981799  16838.171372  10492.532698   -753.718191
PC21  16628.939809   2090.681611 -22314.084613   -948.624227
PC22   3797.184646  18870.029995 -20207.305917     79.342095
PC23 -11523.272481 -25367.872752   1533.291064   -807.668227
PC24  15461.641414  -5583.069927  22545.121485    866.853405
PC25   2324.524068 -21897.001057  17123.741563    467.387976
PC26  19354.730918  13597.917743  14818.191544   -328.315557
PC27 -26543.265307  -6063.068388  -6143.795825    349.037656
PC28 -15055.859888 -14171.460142 -18734.120542    269.316232
PC29  -8369.455855  15202.916721  21846.230794    316.208847
PC30 -25233.771801   6433.037195  10039.953583   -151.370172
PC32 -16571.287634  -2143.881848  22352.345740   -690.041470
PC33  11385.579625 -24791.296550   5926.173955   -964.086847
PC34  24294.439345  -7493.923119 -11505.512254    490.056234
PC35  15093.752505  13824.769874  18940.790621    297.958518
PC36  -2542.865246  22042.352338 -16902.854205    150.770192
PC37 -19040.672680 -13968.465350 -14833.405778   -914.287812
PC38  -8795.530821  35510.559313  21136.301023    170.781330
PC39 -13664.513281  20185.003371 -34351.141689     -9.385372
PC40 -24670.932379  29878.796226  16246.170924    -83.377798
PC41  -3130.037327 -19530.702578  19739.123233   -932.457919
PC42  19861.895895 -15529.898248 -11966.804551   -458.583805
PC43   9446.811175 -15089.777167 -21498.117464     80.895388
PC44  26700.807796   5122.089420   6225.912297    550.787098
PC45  11176.050629  25511.011918  -1934.214817   -111.711696
PE02  12659.328895  16028.732150  21429.141616    148.026742
PE03  20036.984545   7275.150523 -20550.007377   -130.896287
PE04 -28124.764885   7821.302009   4878.388365      1.966863
PE05    344.620221  17706.352492 -23715.798458   4771.343745
PE06 -25695.580012  13946.360627  -4643.800827    -11.073675
PE07  19959.815075 -17760.211241  12761.926038   -134.322493
PE08  28134.558789  -7225.337464  -5743.547809   -312.423148
PE09 -20035.885699  17656.570489 -12747.288546   -537.312510
PE10 -17444.913419   5388.308593  23285.038913   -645.173045
PE11  -8428.088025  13758.657855  24800.817975   2181.898263
PE12 -22974.796895  -2812.364636  18447.872662  -1149.138677
PE13   8917.232736 -13310.096074 -24890.397292    -23.475420
PE14   5734.779955 -21951.184942 -21430.255405    144.543231
PE15  23196.522515   3361.678295 -18076.597154   -118.379918
PE18  10809.399845  13606.711422  19505.212276    385.256775
PE19 -18333.581233  -8633.184550  21579.682121    387.804461
PE21  -1186.583350 -28611.852674  -7495.493291   -608.741609
PE24 -11642.373998  24688.931658 -11477.272203   -907.156868
PE25    906.880455  28719.563628   7117.459381      7.544324
PE26 -10730.034720 -22046.783713 -16576.791526    529.569841
PE27  11444.336556 -24838.380754  11327.481475   -415.597875
PE29   -848.864332 -17716.832539  23691.869743    -19.844575
PE30  17233.018144  -6381.341866  23199.448475   -568.379254
PE31 -17159.943454   6485.017785 -23218.107951    -31.215437
PE33 -23456.659976 -18041.584609    292.830145     14.272496
PE34  23682.600289  17754.368502   -778.191372   -126.053290
PE36  10293.057578  21897.792394  17047.369731   -263.278721
PG02 -22755.673787 -13952.554417   -974.992169   -387.338794
PG03 -12593.337744 -11137.376740  20427.859923    483.195993
PG04 -20349.481162  -3896.141181  16712.655257    415.847371
PG05   5966.988073  23874.612915 -10075.753940   -181.785313
PG06  -7500.783744  12580.304957  22215.045257    124.925035
PG07 -22034.953953  -2871.930227 -14355.410369    -58.784613
PG08 -11115.525383 -11421.031593 -21408.694238    299.082843
PG09 -24656.173066   6383.889380   7543.978050    297.128465
PG10  10435.258331 -20375.663559 -12969.467948    -82.100976
PG11   6541.512126  19622.089210  16725.232480   -714.978644
PG12  11066.465751  14666.804586  18917.176166   -527.061109
PG13   1404.487644  15205.325161 -21930.764561    668.290237
PG14 -13127.772973  16952.694867 -15489.618080    462.740406
PG15  12570.284400  10542.775365 -21422.375512    187.835731
PG16   -774.431927 -25366.183044  -7337.055343   -220.125386
PG17 -21563.367676  14014.599883   7395.356917    664.683107
PG18  21331.646163   2241.265571 -15786.254097   -642.443898
PG19 -15284.323907  15806.572302  14430.661004    518.811589
PG20   1688.316701  26569.959744   1068.260402    372.124885
PG21 -20362.295319 -16602.698760  -6249.413761    105.376392
PG22  -9959.690019  23236.118506  -8197.972720    -46.554697
PG23  14321.553207  -8609.246728 -20564.909508    287.678500
PG24  21480.873425  15562.084288  -4135.839025   -485.219677
PG25  15146.725258   2491.030862  21348.302932    499.014833
PG26   4854.836901 -25077.309031   6381.522170    108.747896
PG27    822.360854 -16583.058127 -20930.372884    -32.360119
PG28   9669.458123 -11805.681348  21728.896272   -355.805365
PG29  24390.320746  -1549.888285  10507.507604   -586.425775
PG30 -15463.597181   7377.072548 -20201.982985   -347.416590
PG31  -1608.910759 -17978.041054  19132.590051   -226.267463
PG32  19549.663805 -15850.555601   8375.811858   -608.671654
PJ02 -24711.692751  30615.365730 -10397.203559     -0.680764
PJ03 -27407.627038  22253.729149  28140.659607     -1.522971
PJ04 -30790.049933  28804.667060   4968.567551     50.876822
PR01   7530.198966   7950.549223 -23041.408858     93.212669
PR02  17529.206261  -6424.294511 -17306.280986    -23.935815
PR03  18119.085894 -17834.728971  -1599.948473    104.862492
PR04   9108.397170 -18901.645066  14521.392099    247.968146
PR05  -4924.977789 -10068.573325  22918.640728    135.434951
PR07 -18024.312384  18059.385551   1052.682806     87.932505
PR08  -8794.297060  18983.669192 -14562.021323     -6.240985
PR09 -12941.327517  -5556.489841 -21263.222615    201.039918
PR11   1897.044259  23196.635144 -10401.191322     16.272202
PR12  10877.454284  21232.381309   9074.356322     43.143230
PR14   6932.118366 -12489.914872  21157.589943     26.754521
PR15  -2606.273089 -23785.637405   8879.604912     77.285629
PR16 -10821.479164 -21359.211848  -8834.544314     27.906182
PR17  16234.598227  -4926.285769 -19063.034371    109.870182
PR18   -383.027417 -10885.319272 -23055.718812    154.954619
PR19 -14977.990789 -12210.874920 -16645.132978   -286.045911
PR20 -24626.882438  -5803.795642   3371.534696   -117.060066
PR21 -16603.579140   4498.018730  18816.351736   -122.510996
PR22   1239.289376  11564.327043  22725.958170     77.685767
PR24  24850.525338   4352.864622  -3843.790507    -66.119491
PR25 -16144.477917   4744.742995  19163.086606    -99.117245
PR26  -9683.531459  19353.485160 -13468.316499      7.446039
EOF
